OBJECT_NAME,OBJECT_ID,EPOCH,MEAN_MOTION,ECCENTRICITY,INCLINATION,RA_OF_ASC_NODE,ARG_OF_PERICENTER,MEAN_ANOMALY,EPHEMERIS_TYPE,CLASSIFICATION_TYPE,NORAD_CAT_ID,ELEMENT_SET_NO,REV_AT_EPOCH,BSTAR,MEAN_MOTION_DOT,MEAN_MOTION_DDOT
STARLINK-37715,2026-110C,2026-06-13T06:00:02.000160,15.37923552,.00024244,97.2843,0.6660,97.0022,212.1723,0,U,69126,999,502,-.94963704E-1,-.3103957E-1,0
STARLINK-37706,2026-110D,2026-06-13T06:00:02.000160,15.38212474,.00020636,97.2836,0.6725,116.0178,207.2302,0,U,69127,999,502,-.92027048E-1,-.304438E-1,0
STARLINK-37723,2026-110E,2026-06-13T06:00:02.000160,15.38200045,.00019265,97.2846,0.6870,102.4304,235.0870,0,U,69128,999,502,-.72768644E-1,-.2426678E-1,0
STARLINK-37720,2026-110F,2026-06-13T06:49:22.518624,15.49205038,.00017491,97.2844,0.4866,90.4261,269.7191,0,U,69129,999,499,.4383061E-3,.23834E-3,0
STARLINK-37533,2026-110G,2026-06-13T06:00:02.000160,15.39237939,.00018292,97.2832,0.7045,100.9570,277.9763,0,U,69130,999,502,-.695952E-1,-.2404058E-1,0
STARLINK-37530,2026-110H,2026-06-13T06:00:02.000160,15.39565007,.00015794,97.2836,0.7113,96.1207,296.6213,0,U,69131,999,502,-.70139213E-1,-.2443882E-1,0
STARLINK-37660,2026-110J,2026-06-13T06:00:02.000160,15.49171446,.00008943,97.2840,0.6294,85.6180,137.9120,0,U,69132,999,502,.18347932E-3,.9895E-4,0
STARLINK-37633,2026-110K,2026-06-13T06:00:02.000160,15.49177442,.00011597,97.2838,0.6427,104.4812,150.0290,0,U,69133,999,502,.14232473E-3,.7655E-4,0
STARLINK-37361,2026-110L,2026-06-13T06:00:02.000160,15.40627142,.0001483,97.2837,0.7288,84.0579,349.1547,0,U,69134,999,502,-.68505991E-1,-.2469178E-1,0
STARLINK-37372,2026-110M,2026-06-13T06:22:21.934560,15.49204817,.00011901,97.2834,0.6667,86.2380,273.9008,0,U,69135,999,500,.43826511E-3,.23831E-3,0
STARLINK-37531,2026-110N,2026-06-13T06:00:02.000160,15.46395675,.00021733,97.2835,0.7154,66.4439,359.7523,0,U,69136,999,502,-.62728601E-1,-.2715525E-1,0
STARLINK-37662,2026-110P,2026-06-13T06:00:02.000160,15.49175550,.00016338,97.2837,0.6532,80.5685,194.9951,0,U,69137,999,502,.26488131E-3,.14335E-3,0
STARLINK-37658,2026-110Q,2026-06-13T05:34:31.043136,15.49197890,.00010607,97.2834,0.5583,131.9385,228.1957,0,U,69138,999,499,.48441655E-3,.26352E-3,0
STARLINK-37659,2026-110R,2026-06-13T05:45:35.811648,15.49198541,.00015532,97.2840,0.5484,137.9322,222.2048,0,U,69139,999,499,.56388075E-3,.30708E-3,0
STARLINK-37653,2026-110S,2026-06-13T05:49:08.747040,15.49202035,.00015441,97.2842,0.5449,154.6084,205.5243,0,U,69140,999,499,.59889227E-3,.32632E-3,0
STARLINK-37654,2026-110T,2026-06-13T06:19:25.741632,15.49219750,.0001497,97.2834,0.6690,90.1036,270.0387,0,U,69141,999,500,.80250708E-3,.43847E-3,0
STARLINK-37655,2026-110U,2026-06-13T06:00:02.000160,15.49217391,.00009503,97.2839,0.7047,62.3525,334.0194,0,U,69142,999,502,.53560335E-3,.29176E-3,0
STARLINK-37636,2026-110V,2026-06-13T06:00:02.000160,15.43798294,.0002059,97.2848,0.7740,71.3575,118.8690,0,U,69143,999,502,-.62296308E-1,-.2495155E-1,0
STARLINK-37638,2026-110W,2026-06-13T06:00:02.000160,15.43992192,.00020579,97.2839,0.7800,81.5177,122.8591,0,U,69144,999,502,-.63003868E-1,-.2534975E-1,0
STARLINK-37657,2026-110X,2026-06-13T06:19:44.211360,15.49207884,.00015501,97.2834,0.6694,89.0356,271.1073,0,U,69145,999,500,.55113316E-3,.30019E-3,0
STARLINK-37639,2026-110Y,2026-06-13T06:00:02.000160,15.44885574,.00022849,97.2842,0.7906,81.9309,145.6355,0,U,69146,999,507,-.60192857E-1,-.2501431E-1,0
STARLINK-37661,2026-110Z,2026-06-13T06:50:37.306464,15.49189402,.000134,97.2840,0.6393,90.7186,269.4219,0,U,69147,999,500,.74753216E-3,.40777E-3,0
STARLINK-37395,2026-111A,2026-06-13T06:00:02.000160,15.72469228,.00010722,53.1592,171.4372,84.9574,39.2228,0,U,69148,999,491,-.92136898E-2,-.1119803E-1,0
STARLINK-37346,2026-111B,2026-06-13T06:00:02.000160,15.59194127,.00008935,53.1586,171.7072,97.0497,254.4975,0,U,69149,999,491,-.36311937E-1,-.2518299E-1,0
STARLINK-37332,2026-111C,2026-06-13T06:00:02.000160,15.49950938,.00014756,53.1591,171.9693,62.1281,159.9164,0,U,69150,999,491,-.19023532E-1,-.989233E-2,0
STARLINK-37297,2026-111D,2026-06-13T06:00:02.000160,15.76141428,.00012174,53.1589,171.4046,86.4715,53.5025,0,U,69151,999,491,-.14453587E-1,-.1991827E-1,0
STARLINK-37317,2026-111E,2026-06-13T06:49:30.525312,15.80655575,.00022545,53.1570,171.1832,125.7752,234.3481,0,U,69152,999,364,-.10203999E-2,-.195681E-2,0
STARLINK-37374,2026-111F,2026-06-13T06:00:02.000160,15.49291106,.00009588,53.1596,172.1453,112.2676,22.3731,0,U,69153,999,491,.2185485E-3,.11717E-3,0
STARLINK-37235,2026-111G,2026-06-13T06:00:02.000160,15.49299171,.00009843,53.1583,172.3880,85.2594,290.0643,0,U,69154,999,491,.17496411E-3,.9291E-4,0
STARLINK-37329,2026-111H,2026-06-13T06:50:08.890368,15.80810229,.0001489,53.1571,171.1862,123.4134,236.7031,0,U,69155,999,364,.70852999E-4,.13266E-3,0
