STARLINK-37715          
1 69126U 26110C   26164.25002315 -.03103957  00000+0 -94964-1 0  9993
2 69126  97.2843   0.6660 0002424  97.0022 212.1723 15.37923552  5026
STARLINK-37706          
1 69127U 26110D   26164.25002315 -.03044380  00000+0 -92027-1 0  9996
2 69127  97.2836   0.6725 0002063 116.0178 207.2302 15.38212474  5027
STARLINK-37723          
1 69128U 26110E   26164.25002315 -.02426678  00000+0 -72769-1 0  9991
2 69128  97.2846   0.6870 0001926 102.4304 235.0870 15.38200045  5027
STARLINK-37720          
1 69129U 26110F   26164.28428841  .00023834  00000+0  43831-3 0  9994
2 69129  97.2844   0.4866 0001749  90.4261 269.7191 15.49205038  4994
STARLINK-37533          
1 69130U 26110G   26164.25002315 -.02404058  00000+0 -69595-1 0  9995
2 69130  97.2832   0.7045 0001829 100.9570 277.9763 15.39237939  5029
STARLINK-37530          
1 69131U 26110H   26164.25002315 -.02443882  00000+0 -70139-1 0  9990
2 69131  97.2836   0.7113 0001579  96.1207 296.6213 15.39565007  5023
STARLINK-37660          
1 69132U 26110J   26164.25002315  .00009895  00000+0  18348-3 0  9995
2 69132  97.2840   0.6294 0000894  85.6180 137.9120 15.49171446  5025
STARLINK-37633          
1 69133U 26110K   26164.25002315  .00007655  00000+0  14232-3 0  9996
2 69133  97.2838   0.6427 0001159 104.4812 150.0290 15.49177442  5024
STARLINK-37361          
1 69134U 26110L   26164.25002315 -.02469178  00000+0 -68506-1 0  9994
2 69134  97.2837   0.7288 0001483  84.0579 349.1547 15.40627142  5027
STARLINK-37372          
1 69135U 26110M   26164.26553165  .00023831  00000+0  43827-3 0  9999
2 69135  97.2834   0.6667 0001190  86.2380 273.9008 15.49204817  5007
STARLINK-37531          
1 69136U 26110N   26164.25002315 -.02715525  00000+0 -62729-1 0  9997
2 69136  97.2835   0.7154 0002173  66.4439 359.7523 15.46395675  5025
STARLINK-37662          
1 69137U 26110P   26164.25002315  .00014335  00000+0  26488-3 0  9999
2 69137  97.2837   0.6532 0001633  80.5685 194.9951 15.49175550  5022
STARLINK-37658          
1 69138U 26110Q   26164.23230374  .00026352  00000+0  48442-3 0  9992
2 69138  97.2834   0.5583 0001060 131.9385 228.1957 15.49197890  4999
STARLINK-37659          
1 69139U 26110R   26164.23999782  .00030708  00000+0  56388-3 0  9996
2 69139  97.2840   0.5484 0001553 137.9322 222.2048 15.49198541  4991
STARLINK-37653          
1 69140U 26110S   26164.24246235  .00032632  00000+0  59889-3 0  9994
2 69140  97.2842   0.5449 0001544 154.6084 205.5243 15.49202035  4992
STARLINK-37654          
1 69141U 26110T   26164.26349238  .00043847  00000+0  80251-3 0  9991
2 69141  97.2834   0.6690 0001497  90.1036 270.0387 15.49219750  5002
STARLINK-37655          
1 69142U 26110U   26164.25002315  .00029176  00000+0  53560-3 0  9995
2 69142  97.2839   0.7047 0000950  62.3525 334.0194 15.49217391  5020
STARLINK-37636          
1 69143U 26110V   26164.25002315 -.02495155  00000+0 -62296-1 0  9998
2 69143  97.2848   0.7740 0002059  71.3575 118.8690 15.43798294  5027
STARLINK-37638          
1 69144U 26110W   26164.25002315 -.02534975  00000+0 -63004-1 0  9991
2 69144  97.2839   0.7800 0002057  81.5177 122.8591 15.43992192  5022
STARLINK-37657          
1 69145U 26110X   26164.26370615  .00030019  00000+0  55113-3 0  9994
2 69145  97.2834   0.6694 0001550  89.0356 271.1073 15.49207884  5001
STARLINK-37639          
1 69146U 26110Y   26164.25002315 -.02501431  00000+0 -60193-1 0  9990
2 69146  97.2842   0.7906 0002284  81.9309 145.6355 15.44885574  5070
STARLINK-37661          
1 69147U 26110Z   26164.28515401  .00040777  00000+0  74753-3 0  9995
2 69147  97.2840   0.6393 0001340  90.7186 269.4219 15.49189402  5000
STARLINK-37395          
1 69148U 26111A   26164.25002315 -.01119803  00000+0 -92137-2 0  9994
2 69148  53.1592 171.4372 0001072  84.9574  39.2228 15.72469228  4913
STARLINK-37346          
1 69149U 26111B   26164.25002315 -.02518299  00000+0 -36312-1 0  9990
2 69149  53.1586 171.7072 0000893  97.0497 254.4975 15.59194127  4914
STARLINK-37332          
1 69150U 26111C   26164.25002315 -.00989233  00000+0 -19024-1 0  9991
2 69150  53.1591 171.9693 0001475  62.1281 159.9164 15.49950938  4912
STARLINK-37297          
1 69151U 26111D   26164.25002315 -.01991827  00000+0 -14454-1 0  9997
2 69151  53.1589 171.4046 0001217  86.4715  53.5025 15.76141428  4913
STARLINK-37317          
1 69152U 26111E   26164.28438108 -.00195681  00000+0 -10204-2 0  9997
2 69152  53.1570 171.1832 0002254 125.7752 234.3481 15.80655575  3646
STARLINK-37374          
1 69153U 26111F   26164.25002315  .00011717  00000+0  21855-3 0  9992
2 69153  53.1596 172.1453 0000958 112.2676  22.3731 15.49291106  4915
STARLINK-37235          
1 69154U 26111G   26164.25002315  .00009291  00000+0  17496-3 0  9993
2 69154  53.1583 172.3880 0000984  85.2594 290.0643 15.49299171  4911
STARLINK-37329          
1 69155U 26111H   26164.28482512  .00013266  00000+0  70853-4 0  9992
2 69155  53.1571 171.1862 0001489 123.4134 236.7031 15.80810229  3647
